NORAD_CAT_ID,OBJECT_NAME,OBJECT_TYPE,EPOCH,MEAN_MOTION,ECCENTRICITY,INCLINATION,RA_OF_ASC_NODE,ARG_OF_PERICENTER,MEAN_ANOMALY,BSTAR,MEAN_MOTION_DOT,MEAN_MOTION_DDOT,TLE_LINE0,TLE_LINE1,TLE_LINE2,SEMIMAJOR_AXIS,PERIOD,APOGEE,PERIGEE,DECAYED
52371.0,STARLINK-3798,PAYLOAD,2022-05-25 06:00:00,15.73154446,8.92e-05,53.2132,310.7137,67.1553,353.653,0.00067275,0.0009468,0.0,0 STARLINK-3798,1 52371U 22045AS  22145.25001157  .00094680  00000-0  67275-3 0  9993,2 52371  53.2132 310.7137 0000892  67.1553 353.6530 15.73154446  6533,6728.025,91.536,350.49,349.29,0.0
52371.0,STARLINK-3798,PAYLOAD,2022-05-25 12:00:00,15.73209484,0.0001026,53.2133,309.4765,70.3277,327.1357,0.00028551,0.00039655,0.0,0 STARLINK-3798,1 52371U 22045AS  22145.50001157  .00039655  00000-0  28551-3 0  9996,2 52371  53.2133 309.4765 0001026  70.3277 327.1357 15.73209484  6564,6727.868,91.533,350.423,349.043,0.0
52371.0,STARLINK-3798,PAYLOAD,2022-05-25 14:00:01,15.73246339,0.0001079,53.2132,309.0647,67.7513,81.9406,-0.00026232,-0.00037344,0.0,0 STARLINK-3798,1 52371U 22045AS  22145.58334491 -.00037344  00000-0 -26232-3 0  9993,2 52371  53.2132 309.0647 0001079  67.7513  81.9406 15.73246339  1306,6727.763000000001,91.53,350.35400000000016,348.902,0.0
52371.0,STARLINK-3798,PAYLOAD,2022-05-25 22:00:00,15.73210321,0.0001324,53.213,307.4164,56.9846,181.7182,-8.8051e-05,-0.00012964,0.0,0 STARLINK-3798,1 52371U 22045AS  22145.91667824 -.00012964  00000-0 -88051-4 0  9998,2 52371  53.2130 307.4164 0001324  56.9846 181.7182 15.73210321  1304,6727.866,91.533,350.622,348.84,0.0
52371.0,STARLINK-3798,PAYLOAD,2022-05-26 06:00:00,15.73158045,0.0001330999999999,53.2133,305.7645,68.5587,259.0746,0.00069532,0.00097932,0.0,0 STARLINK-3798,1 52371U 22045AS  22146.25001157  .00097932  00000-0  69532-3 0  9995,2 52371  53.2133 305.7645 0001331  68.5587 259.0746 15.73158045  6686,6728.015,91.536,350.775,348.9840000000001,0.0
52371.0,STARLINK-3798,PAYLOAD,2022-05-26 12:00:00,15.732505499999998,0.0001254,53.2136,304.5273,67.4422,236.8549,-0.00034988,-0.00049541,0.0,0 STARLINK-3798,1 52371U 22045AS  22146.50001157 -.00049541  00000-0 -34988-3 0  9995,2 52371  53.2136 304.5273 0001254  67.4422 236.8549 15.73250550  6726,6727.751,91.53,350.46,348.772,0.0
52371.0,STARLINK-3798,PAYLOAD,2022-05-26 14:00:01,15.73272054,0.0001267,53.2135,304.1155,61.8918,354.6425,-0.00083802,-0.00116969,0.0,0 STARLINK-3798,1 52371U 22045AS  22146.58334491 -.00116969  00000-0 -83802-3 0  9991,2 52371  53.2135 304.1155 0001267  61.8918 354.6425 15.73272054  1306,6727.69,91.529,350.407,348.702,0.0
52371.0,STARLINK-3798,PAYLOAD,2022-05-26 22:00:00,15.73148925,0.0001185,53.2132,302.467,44.1074,101.4114,0.00048865,0.00068368,0.0,0 STARLINK-3798,1 52371U 22045AS  22146.91667824  .00068368  00000-0  48865-3 0  9994,2 52371  53.2132 302.4670 0001185  44.1074 101.4114 15.73148925  1304,6728.041,91.536,350.70300000000015,349.1090000000001,0.0
52371.0,STARLINK-3798,PAYLOAD,2022-05-27 14:09:22,15.731767199999998,0.00013,53.2138,299.1339,56.9924,303.1221,-5.7397e-05,-8.659e-05,0.0,0 STARLINK-3798,1 52371U 22045AS  22147.58984354 -.00008659  00000-0 -57397-4 0  9998,2 52371  53.2138 299.1339 0001300  56.9924 303.1221 15.73176720  6903,6727.962,91.535,350.701,348.952,0.0
52371.0,STARLINK-3798,PAYLOAD,2022-05-27 16:00:00,15.73174021,0.0001293,53.213,298.7549,50.4302,25.0843,0.00022784,0.0003143999999999,0.0,0 STARLINK-3798,1 52371U 22045AS  22147.66667824  .00031440  00000-0  22784-3 0  9990,2 52371  53.2130 298.7549 0001293  50.4302  25.0843 15.73174021  6916,6727.969,91.535,350.704,348.964,0.0
52371.0,STARLINK-3798,PAYLOAD,2022-05-27 22:00:01,15.73181234,0.0001364,53.2129,297.5181,43.9518,8.3089,0.00064717,0.00091123,0.0,0 STARLINK-3798,1 52371U 22045AS  22147.91668981  .00091123  00000-0  64717-3 0  9999,2 52371  53.2129 297.5181 0001364  43.9518   8.3089 15.73181234  1306,6727.949000000001,91.534,350.731,348.896,0.0
52371.0,STARLINK-3798,PAYLOAD,2022-05-28 06:00:02,15.73244513,0.0001252,53.2133,295.8662,51.9129,89.3016,9.7854e-05,0.0001315999999999,0.0,0 STARLINK-3798,1 52371U 22045AS  22148.25002315  .00013160  00000-0  97854-4 0  9994,2 52371  53.2133 295.8662 0001252  51.9129  89.3016 15.73244513  7001,6727.768,91.531,350.476,348.791,0.0
52371.0,STARLINK-3798,PAYLOAD,2022-05-28 14:00:01,15.73252704,0.0001453,53.2137,294.2175,50.8184,179.325,0.00011538,0.00015639,0.0,0 STARLINK-3798,1 52371U 22045AS  22148.58334491  .00015639  00000-0  11538-3 0  9990,2 52371  53.2137 294.2175 0001453  50.8184 179.3250 15.73252704  1307,6727.745,91.53,350.587,348.63199999999995,0.0
52371.0,STARLINK-3798,PAYLOAD,2022-05-28 19:07:29,15.73209046,0.000148,53.2136,293.159,46.6741,313.4403,-7.9311e-06,-1.734e-05,0.0,0 STARLINK-3798,1 52371U 22045AS  22148.79686724 -.00001734  00000-0 -79311-5 0  9990,2 52371  53.2136 293.1590 0001480  46.6741 313.4403 15.73209046  7091,6727.869000000002,91.533,350.73,348.73900000000015,0.0
52371.0,STARLINK-3798,PAYLOAD,2022-05-29 13:25:14,15.73210227,0.0001696999999999,53.2144,289.3875,51.1582,308.9589,2.5748e-05,2.996e-05,0.0,0 STARLINK-3798,1 52371U 22045AS  22149.55920133  .00002996  00000-0  25748-4 0  9993,2 52371  53.2144 289.3875 0001697  51.1582 308.9589 15.73210227  7218,6727.866,91.533,350.87300000000016,348.589,0.0
52371.0,STARLINK-3798,PAYLOAD,2022-05-29 20:00:01,15.73181853,0.0001754,53.2134,288.0327,45.76600000000001,67.8678,8.394899999999999e-05,0.00011168,0.0,0 STARLINK-3798,1 52371U 22045AS  22149.83334491  .00011168  00000-0  83949-4 0  9998,2 52371  53.2134 288.0327 0001754  45.7660  67.8678 15.73181853  7251,6727.946999999999,91.534,350.992,348.63199999999995,0.0
52371.0,STARLINK-3798,PAYLOAD,2022-05-29 22:00:00,15.7318863,0.0001724,53.2131,287.6199,44.1936,181.6671,-2.1696e-05,-3.663e-05,0.0,0 STARLINK-3798,1 52371U 22045AS  22149.91667824 -.00003663  00000-0 -21696-4 0  9990,2 52371  53.2131 287.6199 0001724  44.1936 181.6671 15.73188630  1304,6727.928000000001,91.534,350.952,348.6330000000001,0.0
52371.0,STARLINK-3798,PAYLOAD,2022-05-30 14:00:01,15.73256165,0.0001648,53.214,284.3201,42.2387,1.4392,-0.0004284,-0.0006046,0.0,0 STARLINK-3798,1 52371U 22045AS  22150.58334491 -.00060460  00000-0 -42840-3 0  9997,2 52371  53.2140 284.3201 0001648  42.2387   1.4392 15.73256165  1304,6727.735,91.53,350.709,348.491,0.0
52371.0,STARLINK-3798,PAYLOAD,2022-05-30 22:00:00,15.73201168,0.00017,53.2136,282.6709,36.4707,96.1736,6.4338e-05,8.419e-05,0.0,0 STARLINK-3798,1 52371U 22045AS  22150.91667824  .00008419  00000-0  64338-4 0  9994,2 52371  53.2136 282.6709 0001700  36.4707  96.1736 15.73201168  7428,6727.892,91.533,350.901,348.61300000000006,0.0
52371.0,STARLINK-3798,PAYLOAD,2022-05-31 06:00:02,15.73167052,0.0001591,53.2137,281.0194,42.6174,179.0389,0.00030952,0.00042981,0.0,0 STARLINK-3798,1 52371U 22045AS  22151.25002315  .00042981  00000-0  30952-3 0  9996,2 52371  53.2137 281.0194 0001591  42.6174 179.0389 15.73167052  1304,6727.989000000001,91.535,350.925,348.784,0.0
52371.0,STARLINK-3798,PAYLOAD,2022-05-31 14:00:01,15.73196196,0.0001799,53.2137,279.3717,41.5518,268.9347,0.00011102,0.00014986,0.0,0 STARLINK-3798,1 52371U 22045AS  22151.58334491  .00014986  00000-0  11102-3 0  9995,2 52371  53.2137 279.3717 0001799  41.5518 268.9347 15.73196196  7528,6727.906,91.533,350.981,348.561,0.0
52371.0,STARLINK-3798,PAYLOAD,2022-05-31 22:00:00,15.73241871,0.0001839,53.2133,277.7225,35.36,4.055,-1.7106e-05,-3.026e-05,0.0,0 STARLINK-3798,1 52371U 22045AS  22151.91667824 -.00003026  00000-0 -17106-4 0  9997,2 52371  53.2133 277.7225 0001839  35.3600   4.0550 15.73241871  1304,6727.776,91.531,350.87800000000016,348.404,0.0
52371.0,STARLINK-3798,PAYLOAD,2022-06-01 11:33:19,15.732237699999995,0.0001446,53.2145,274.9251,38.4123,321.7,3.3037e-05,4.023e-05,0.0,0 STARLINK-3798,1 52371U 22045AS  22152.48148039  .00004023  00000-0  33037-4 0  9999,2 52371  53.2145 274.9251 0001446  38.4123 321.7000 15.73223770  7676,6727.8269999999975,91.532,350.665,348.72,0.0
52371.0,STARLINK-3798,PAYLOAD,2022-06-01 20:00:01,15.731787699999998,0.0001785,53.2135,273.1864,24.1635,169.9023,0.00028128,0.00039004,0.0,0 STARLINK-3798,1 52371U 22045AS  22152.83334491  .00039004  00000-0  28128-3 0  9998,2 52371  53.2135 273.1864 0001785  24.1635 169.9023 15.73178770  7724,6727.956,91.534,351.022,348.62,0.0
52371.0,STARLINK-3798,PAYLOAD,2022-06-02 18:02:57,15.73191378,0.0001537,53.2132,268.6375,31.5546,328.5566,-2.6771e-05,-4.374e-05,0.0,0 STARLINK-3798,1 52371U 22045AS  22153.75205087 -.00004374  00000-0 -26771-4 0  9995,2 52371  53.2132 268.6375 0001537  31.5546 328.5566 15.73191378  7875,6727.92,91.534,350.819,348.751,0.0
52371.0,STARLINK-3798,PAYLOAD,2022-06-03 13:52:10,15.73228729,0.0001874,53.2134,264.5511,32.3736,327.7399,4.3859e-05,5.546e-05,0.0,0 STARLINK-3798,1 52371U 22045AS  22154.57789721  .00005546  00000-0  43859-4 0  9994,2 52371  53.2134 264.5511 0001874  32.3736 327.7399 15.73228729  8000,6727.813,91.532,350.939,348.417,0.0
52371.0,STARLINK-3798,PAYLOAD,2022-06-03 18:26:35,15.73246731,0.000183,53.2141,263.6063,37.2941,322.8206,7.2838e-05,9.634e-05,0.0,0 STARLINK-3798,1 52371U 22045AS  22154.76846826  .00009634  00000-0  72838-4 0  9996,2 52371  53.2141 263.6063 0001830  37.2941 322.8206 15.73246731  8033,6727.762,91.53,350.858,348.396,0.0
52371.0,STARLINK-3798,PAYLOAD,2022-06-04 00:32:32,15.73213757,0.0001993,53.2141,262.3498,37.9823,322.1338,1.9617e-05,2.134e-05,0.0,0 STARLINK-3798,1 52371U 22045AS  22155.02259456  .00002134  00000-0  19617-4 0  9997,2 52371  53.2141 262.3498 0001993  37.9823 322.1338 15.73213757  8072,6727.856,91.532,351.06199999999984,348.38,0.0
52371.0,STARLINK-3798,PAYLOAD,2022-06-04 11:12:52,15.73228884,0.000217,53.2144,260.15,33.6599,326.4559,5.6932e-05,7.386e-05,0.0,0 STARLINK-3798,1 52371U 22045AS  22155.46727766  .00007386  00000-0  56932-4 0  9994,2 52371  53.2144 260.1500 0002170  33.6599 326.4559 15.73228884  8143,6727.813,91.532,351.13800000000015,348.218,0.0
